SL-16 R/B               
1 22566U 93016B   26050.54518839 -.00000154  00000+0 -54404-4 0  9998
2 22566  71.0043 253.2917 0010668 338.9023  21.1659 14.15300099699602
COSMOS 2242             
1 22626U 93024A   26050.58266636  .00001750  00000+0  15149-3 0  9996
2 22626  82.5174 284.0376 0016728  11.5577 348.6025 14.96471241777689
SL-16 R/B               
1 22803U 93059B   26050.47867395 -.00000075  00000+0 -13036-4 0  9993
2 22803  70.9894  49.5295 0019246 241.6370 118.2813 14.17227374676958
ARIANE 40 R/B           
1 22830U 93061H   26050.19343162  .00000173  00000+0  79232-4 0  9993
2 22830  98.4957 119.4425 0010160 344.7393  15.3483 14.32850486691456
COSMOS 2278             
1 23087U 94023A   26050.56311838  .00000234  00000+0  14687-3 0  9993
2 23087  71.0511 213.0196 0007097  49.4308 310.7431 14.14365738642249
SL-16 R/B               
1 23088U 94023B   26050.54711071  .00000333  00000+0  19678-3 0  9990
2 23088  70.9992 108.9911 0004872 302.5206  57.5446 14.15009527643522
SL-16 R/B               
1 23343U 94074B   26050.55019976  .00000434  00000+0  64887-4 0  9991
2 23343  97.7135  82.1005 0005137 283.3250 237.0639 14.79385247684563
SL-16 R/B               
1 23405U 94077B   26050.39446237  .00000136  00000+0  93843-4 0  9992
2 23405  70.9836  30.9767 0003901 229.6618 130.4164 14.15563241613649
ARIANE 40+ R/B          
1 23561U 95021B   26050.18485984  .00000253  00000+0  94581-4 0  9994
2 23561  98.4537 121.9146 0006735 188.1016 196.5795 14.39757998616585
SL-16 R/B               
1 23705U 95058B   26050.54187159 -.00000161  00000+0 -57862-4 0  9998
2 23705  71.0200 218.3542 0011431 157.1664 202.9970 14.15495637565284
SL-16 R/B               
1 24298U 96051B   26050.53998124  .00000077  00000+0  68423-4 0  9990
2 24298  70.7575 213.6535 0016734 174.0724 186.0597 14.12410494519088
ORBVIEW 2 (SEASTAR)     
1 24883U 97037A   26050.43465968  .00000237  00000+0  98718-4 0  9997
2 24883  98.8533 214.2658 0003163 108.8416 251.3112 14.35479723505855
