CCSDS_OMM_VERS = 2.0
CREATION_DATE  = 
ORIGINATOR     = 

OBJECT_NAME    = SL-16 R/B
OBJECT_ID      = 1993-016B
CENTER_NAME    = EARTH
REF_FRAME      = TEME
TIME_SYSTEM    = UTC
MEAN_ELEMENT_THEORY = SGP/SGP4

EPOCH          = 2026-02-19T13:05:04.276896
MEAN_MOTION    = 14.15300099
ECCENTRICITY   = .00106684
INCLINATION    = 71.0043
RA_OF_ASC_NODE = 253.2917
ARG_OF_PERICENTER = 338.9023
MEAN_ANOMALY   = 21.1659

EPHEMERIS_TYPE = 0
CLASSIFICATION_TYPE = U
NORAD_CAT_ID   = 22566
ELEMENT_SET_NO = 999
REV_AT_EPOCH   = 69960
BSTAR          = -.54404266E-4
MEAN_MOTION_DOT = -.154E-5
MEAN_MOTION_DDOT = 0

CCSDS_OMM_VERS = 2.0
CREATION_DATE  = 
ORIGINATOR     = 

OBJECT_NAME    = COSMOS 2242
OBJECT_ID      = 1993-024A
CENTER_NAME    = EARTH
REF_FRAME      = TEME
TIME_SYSTEM    = UTC
MEAN_ELEMENT_THEORY = SGP/SGP4

EPOCH          = 2026-02-19T13:59:02.373504
MEAN_MOTION    = 14.96471241
ECCENTRICITY   = .00167285
INCLINATION    = 82.5174
RA_OF_ASC_NODE = 284.0376
ARG_OF_PERICENTER = 11.5577
MEAN_ANOMALY   = 348.6025

EPHEMERIS_TYPE = 0
CLASSIFICATION_TYPE = U
NORAD_CAT_ID   = 22626
ELEMENT_SET_NO = 999
REV_AT_EPOCH   = 77768
BSTAR          = .15149389E-3
MEAN_MOTION_DOT = .175E-4
MEAN_MOTION_DDOT = 0

CCSDS_OMM_VERS = 2.0
CREATION_DATE  = 
ORIGINATOR     = 

OBJECT_NAME    = SL-16 R/B
OBJECT_ID      = 1993-059B
CENTER_NAME    = EARTH
REF_FRAME      = TEME
TIME_SYSTEM    = UTC
MEAN_ELEMENT_THEORY = SGP/SGP4

EPOCH          = 2026-02-19T11:29:17.429280
MEAN_MOTION    = 14.17227374
ECCENTRICITY   = .00192465
INCLINATION    = 70.9894
RA_OF_ASC_NODE = 49.5295
ARG_OF_PERICENTER = 241.6370
MEAN_ANOMALY   = 118.2813

EPHEMERIS_TYPE = 0
CLASSIFICATION_TYPE = U
NORAD_CAT_ID   = 22803
ELEMENT_SET_NO = 999
REV_AT_EPOCH   = 67695
BSTAR          = -.13036165E-4
MEAN_MOTION_DOT = -.75E-6
MEAN_MOTION_DDOT = 0

CCSDS_OMM_VERS = 2.0
CREATION_DATE  = 
ORIGINATOR     = 

OBJECT_NAME    = ARIANE 40 R/B
OBJECT_ID      = 1993-061H
CENTER_NAME    = EARTH
REF_FRAME      = TEME
TIME_SYSTEM    = UTC
MEAN_ELEMENT_THEORY = SGP/SGP4

EPOCH          = 2026-02-19T04:38:32.491968
MEAN_MOTION    = 14.32850486
ECCENTRICITY   = .00101609
INCLINATION    = 98.4957
RA_OF_ASC_NODE = 119.4425
ARG_OF_PERICENTER = 344.7393
MEAN_ANOMALY   = 15.3483

EPHEMERIS_TYPE = 0
CLASSIFICATION_TYPE = U
NORAD_CAT_ID   = 22830
ELEMENT_SET_NO = 999
REV_AT_EPOCH   = 69145
BSTAR          = .7923151E-4
MEAN_MOTION_DOT = .173E-5
MEAN_MOTION_DDOT = 0

CCSDS_OMM_VERS = 2.0
CREATION_DATE  = 
ORIGINATOR     = 

OBJECT_NAME    = COSMOS 2278
OBJECT_ID      = 1994-023A
CENTER_NAME    = EARTH
REF_FRAME      = TEME
TIME_SYSTEM    = UTC
MEAN_ELEMENT_THEORY = SGP/SGP4

EPOCH          = 2026-02-19T13:30:53.428032
MEAN_MOTION    = 14.14365738
ECCENTRICITY   = .00070976
INCLINATION    = 71.0511
RA_OF_ASC_NODE = 213.0196
ARG_OF_PERICENTER = 49.4308
MEAN_ANOMALY   = 310.7431

EPHEMERIS_TYPE = 0
CLASSIFICATION_TYPE = U
NORAD_CAT_ID   = 23087
ELEMENT_SET_NO = 999
REV_AT_EPOCH   = 64224
BSTAR          = .14686863E-3
MEAN_MOTION_DOT = .234E-5
MEAN_MOTION_DDOT = 0

CCSDS_OMM_VERS = 2.0
CREATION_DATE  = 
ORIGINATOR     = 

OBJECT_NAME    = SL-16 R/B
OBJECT_ID      = 1994-023B
CENTER_NAME    = EARTH
REF_FRAME      = TEME
TIME_SYSTEM    = UTC
MEAN_ELEMENT_THEORY = SGP/SGP4

EPOCH          = 2026-02-19T13:07:50.365344
MEAN_MOTION    = 14.15009527
ECCENTRICITY   = .00048724
INCLINATION    = 70.9992
RA_OF_ASC_NODE = 108.9911
ARG_OF_PERICENTER = 302.5206
MEAN_ANOMALY   = 57.5446

EPHEMERIS_TYPE = 0
CLASSIFICATION_TYPE = U
NORAD_CAT_ID   = 23088
ELEMENT_SET_NO = 999
REV_AT_EPOCH   = 64352
BSTAR          = .19677952E-3
MEAN_MOTION_DOT = .333E-5
MEAN_MOTION_DDOT = 0

CCSDS_OMM_VERS = 2.0
CREATION_DATE  = 
ORIGINATOR     = 

OBJECT_NAME    = SL-16 R/B
OBJECT_ID      = 1994-074B
CENTER_NAME    = EARTH
REF_FRAME      = TEME
TIME_SYSTEM    = UTC
MEAN_ELEMENT_THEORY = SGP/SGP4

EPOCH          = 2026-02-19T13:12:17.259264
MEAN_MOTION    = 14.79385247
ECCENTRICITY   = .00051378
INCLINATION    = 97.7135
RA_OF_ASC_NODE = 82.1005
ARG_OF_PERICENTER = 283.3250
MEAN_ANOMALY   = 237.0639

EPHEMERIS_TYPE = 0
CLASSIFICATION_TYPE = U
NORAD_CAT_ID   = 23343
ELEMENT_SET_NO = 999
REV_AT_EPOCH   = 68456
BSTAR          = .64886608E-4
MEAN_MOTION_DOT = .434E-5
MEAN_MOTION_DDOT = 0

CCSDS_OMM_VERS = 2.0
CREATION_DATE  = 
ORIGINATOR     = 

OBJECT_NAME    = SL-16 R/B
OBJECT_ID      = 1994-077B
CENTER_NAME    = EARTH
REF_FRAME      = TEME
TIME_SYSTEM    = UTC
MEAN_ELEMENT_THEORY = SGP/SGP4

EPOCH          = 2026-02-19T09:28:01.548768
MEAN_MOTION    = 14.15563241
ECCENTRICITY   = .00039018
INCLINATION    = 70.9836
RA_OF_ASC_NODE = 30.9767
ARG_OF_PERICENTER = 229.6618
MEAN_ANOMALY   = 130.4164

EPHEMERIS_TYPE = 0
CLASSIFICATION_TYPE = U
NORAD_CAT_ID   = 23405
ELEMENT_SET_NO = 999
REV_AT_EPOCH   = 61364
BSTAR          = .93843268E-4
MEAN_MOTION_DOT = .136E-5
MEAN_MOTION_DDOT = 0

CCSDS_OMM_VERS = 2.0
CREATION_DATE  = 
ORIGINATOR     = 

OBJECT_NAME    = ARIANE 40+ R/B
OBJECT_ID      = 1995-021B
CENTER_NAME    = EARTH
REF_FRAME      = TEME
TIME_SYSTEM    = UTC
MEAN_ELEMENT_THEORY = SGP/SGP4

EPOCH          = 2026-02-19T04:26:11.890176
MEAN_MOTION    = 14.39757998
ECCENTRICITY   = .0006735
INCLINATION    = 98.4537
RA_OF_ASC_NODE = 121.9146
ARG_OF_PERICENTER = 188.1016
MEAN_ANOMALY   = 196.5795

EPHEMERIS_TYPE = 0
CLASSIFICATION_TYPE = U
NORAD_CAT_ID   = 23561
ELEMENT_SET_NO = 999
REV_AT_EPOCH   = 61658
BSTAR          = .94580524E-4
MEAN_MOTION_DOT = .253E-5
MEAN_MOTION_DDOT = 0

CCSDS_OMM_VERS = 2.0
CREATION_DATE  = 
ORIGINATOR     = 

OBJECT_NAME    = SL-16 R/B
OBJECT_ID      = 1995-058B
CENTER_NAME    = EARTH
REF_FRAME      = TEME
TIME_SYSTEM    = UTC
MEAN_ELEMENT_THEORY = SGP/SGP4

EPOCH          = 2026-02-19T13:00:17.705376
MEAN_MOTION    = 14.15495637
ECCENTRICITY   = .00114314
INCLINATION    = 71.0200
RA_OF_ASC_NODE = 218.3542
ARG_OF_PERICENTER = 157.1664
MEAN_ANOMALY   = 202.9970

EPHEMERIS_TYPE = 0
CLASSIFICATION_TYPE = U
NORAD_CAT_ID   = 23705
ELEMENT_SET_NO = 999
REV_AT_EPOCH   = 56528
BSTAR          = -.5786189E-4
MEAN_MOTION_DOT = -.161E-5
MEAN_MOTION_DDOT = 0

CCSDS_OMM_VERS = 2.0
CREATION_DATE  = 
ORIGINATOR     = 

OBJECT_NAME    = SL-16 R/B
OBJECT_ID      = 1996-051B
CENTER_NAME    = EARTH
REF_FRAME      = TEME
TIME_SYSTEM    = UTC
MEAN_ELEMENT_THEORY = SGP/SGP4

EPOCH          = 2026-02-19T12:57:34.379136
MEAN_MOTION    = 14.12410494
ECCENTRICITY   = .00167349
INCLINATION    = 70.7575
RA_OF_ASC_NODE = 213.6535
ARG_OF_PERICENTER = 174.0724
MEAN_ANOMALY   = 186.0597

EPHEMERIS_TYPE = 0
CLASSIFICATION_TYPE = U
NORAD_CAT_ID   = 24298
ELEMENT_SET_NO = 999
REV_AT_EPOCH   = 51908
BSTAR          = .68423399E-4
MEAN_MOTION_DOT = .77E-6
MEAN_MOTION_DDOT = 0

CCSDS_OMM_VERS = 2.0
CREATION_DATE  = 
ORIGINATOR     = 

OBJECT_NAME    = ORBVIEW 2 (SEASTAR)
OBJECT_ID      = 1997-037A
CENTER_NAME    = EARTH
REF_FRAME      = TEME
TIME_SYSTEM    = UTC
MEAN_ELEMENT_THEORY = SGP/SGP4

EPOCH          = 2026-02-19T10:25:54.596352
MEAN_MOTION    = 14.35479723
ECCENTRICITY   = .00031633
INCLINATION    = 98.8533
RA_OF_ASC_NODE = 214.2658
ARG_OF_PERICENTER = 108.8416
MEAN_ANOMALY   = 251.3112

EPHEMERIS_TYPE = 0
CLASSIFICATION_TYPE = U
NORAD_CAT_ID   = 24883
ELEMENT_SET_NO = 999
REV_AT_EPOCH   = 50585
BSTAR          = .98717688E-4
MEAN_MOTION_DOT = .237E-5
MEAN_MOTION_DDOT = 0

